CRE (WAAS/PRN 138)      
1 28868U 05036A   22363.54433056 -.00000071  00000+0  00000+0 0  9999
2 28868   1.0567  91.8647 0000549 180.9744 273.7677  1.00271237 33760
IOR-W (EGNOS/PRN 126)   
1 28899U 05044A   22363.51304674  .00000012  00000+0  00000+0 0  9996
2 28899   3.6578  39.0882 0002948 239.0426  68.3874  1.00271431 62829
QZS-1 (QZSS/PRN 183)    
1 37158U 10045A   22363.23882566 -.00000139  00000+0  00000+0 0  9992
2 37158  42.5463 130.7045 0757270 270.4201 279.1417  1.00257727 45049
GSAT-8 (GAGAN/PRN 127)  
1 37605U 11022A   22363.51139060  .00000088  00000+0  00000+0 0  9992
2 37605   0.0134  19.3484 0008815 246.5410  71.2321  1.00270772 40527
LUCH 5A (SDCM/PRN 140)  
1 37951U 11074B   22362.54285544 -.00000048  00000+0  00000+0 0  9991
2 37951   5.5056  94.0589 0002555 157.4342 207.8084  1.00273536 40499
SES-5 (EGNOS/PRN 136)   
1 38652U 12036A   22363.28615625  .00000036  00000+0  00000+0 0  9994
2 38652   0.0522 298.1951 0001990 329.7747 297.7325  1.00270440 31791
GSAT-10 (GAGAN/PRN 128) 
1 38779U 12051B   22363.51696916 -.00000162  00000+0  00000+0 0  9990
2 38779   0.0869  98.8067 0004625 175.7581  92.4911  1.00271769 37423
LUCH 5B (SDCM/PRN 125)  
1 38977U 12061A   22363.42544591 -.00000136  00000+0  00000+0 0  9993
2 38977   7.7134  61.1377 0002353 143.9533  29.5912  1.00271209 37486
ASTRA 5B (EGNOS/PRN 123)
1 39617U 14011B   22363.29147331  .00000157  00000+0  00000+0 0  9990
2 39617   0.0344  23.9692 0003389 245.4259 324.7208  1.00270579 31971
LUCH 5V (SDCM/PRN 141)  
1 39727U 14023A   22363.51923544 -.00000267  00000+0  00000+0 0  9991
2 39727   1.9700  77.1767 0002673 220.0014  82.3672  1.00275052 31665
GSAT-15 (GAGAN/PRN 139) 
1 41028U 15065A   22363.50518163 -.00000255  00000+0  00000+0 0  9998
2 41028   0.0159  36.4029 0001847 211.5086 125.3979  1.00268473 26116
E 117 W B (WAAS/PRN 131)
1 41589U 16038B   22363.28955005 -.00000008  00000+0  00000+0 0  9992
2 41589   0.0076 206.0257 0000397 156.3577  82.5708  1.00267890 23971
SES-15 (WAAS/PRN 133)   
1 42709U 17026A   22362.68567219  .00000062  00000+0  00000+0 0  9993
2 42709   0.0163   0.1993 0000991 196.3972  18.2195  1.00269313 21444
QZS-2 (QZSS/PRN 184)    
1 42738U 17028A   22362.59423608 -.00000183  00000+0  00000+0 0  9995
2 42738  41.4503 261.4192 0756516 269.5677 280.8139  1.00282821 20445
QZS-3 (QZSS/PRN 189)    
1 42917U 17048A   22363.45394887 -.00000345  00000+0  00000+0 0  9998
2 42917   0.0539 196.2566 0002505  89.1417 102.8954  1.00267841 19568
QZS-4 (QZSS/PRN 185)    
1 42965U 17062A   22361.87601178 -.00000345  00000+0  00000+0 0  9995
2 42965  40.7197 359.6361 0750666 271.7251 276.0299  1.00251673 19105
GALAXY 30 (WAAS/PRN 135)
1 46114U 20056C   22363.55179997  .00000040  00000+0  00000+0 0  9999
2 46114   0.0211   8.6810 0002263 275.6194 247.3170  1.00271981  8711
